[{"OBJECT_NAME":"ONEWEB-0530","OBJECT_ID":"2023-029A","EPOCH":"2026-03-09T20:22:37.983072","MEAN_MOTION":13.20770637,"ECCENTRICITY":0.00013361,"INCLINATION":87.9161,"RA_OF_ASC_NODE":294.3137,"ARG_OF_PERICENTER":67.1134,"MEAN_ANOMALY":293.014,"EPHEMERIS_TYPE":0,"CLASSIFICATION_TYPE":"U","NORAD_CAT_ID":55796,"ELEMENT_SET_NO":999,"REV_AT_EPOCH":14803,"BSTAR":-0.00046135555,"MEAN_MOTION_DOT":-1.75e-6,"MEAN_MOTION_DDOT":0},{"OBJECT_NAME":"FENGYUN 1C DEB","OBJECT_ID":"1999-025ASW","EPOCH":"2026-03-08T08:08:40.544160","MEAN_MOTION":13.61944025,"ECCENTRICITY":0.02814561,"INCLINATION":98.7732,"RA_OF_ASC_NODE":101.824,"ARG_OF_PERICENTER":190.1859,"MEAN_ANOMALY":187.6619,"EPHEMERIS_TYPE":0,"CLASSIFICATION_TYPE":"U","NORAD_CAT_ID":30736,"ELEMENT_SET_NO":999,"REV_AT_EPOCH":94018,"BSTAR":0.0018786895,"MEAN_MOTION_DOT":1.847e-5,"MEAN_MOTION_DDOT":0}]
